ONEWEB-0605             
1 54669U 22166AD  22353.78393728  .00003051  00000+0  30717-3 0  9998
2 54669  86.5169 153.5586 0006994 204.1320 155.9581 14.90830260  1918
ONEWEB-0606             
1 54670U 22166AE  22353.78206791  .00002971  00000+0  29708-3 0  9991
2 54670  86.5189 153.5605 0007617 196.5094 163.5886 14.91088900  1919
ONEWEB-0607             
1 54671U 22166AF  22353.78246614  .00002739  00000+0  27408-3 0  9997
2 54671  86.5148 153.5543 0007473 198.0953 162.0010 14.91029391  1919
ONEWEB-0608             
1 54672U 22166AG  22353.77522252  .00002797  00000+0  27283-3 0  9997
2 54672  86.5163 153.5537 0011633 198.1314 161.9501 14.92030227  1919
ONEWEB-0610             
1 54673U 22166AH  22353.78184848  .00001743  00000+0  17305-3 0  9998
2 54673  86.5158 153.5553 0007690 195.8899 164.2089 14.91102939  1918
ONEWEB-0611             
1 54674U 22166AJ  22353.77753776  .00002960  00000+0  29119-3 0  9998
2 54674  86.5177 153.5572 0010354 193.2629 166.8328 14.91714082  1917
ONEWEB-0612             
1 54675U 22166AK  22353.78302804  .00002910  00000+0  29195-3 0  9991
2 54675  86.5190 153.5614 0007229 199.8913 160.2034 14.90952932  1914
ONEWEB-0615             
1 54676U 22166AL  22353.77921102  .00002849  00000+0  28195-3 0  9999
2 54676  86.5177 153.5585 0009363 191.9222 168.1785 14.91478989  1910
ONEWEB-0655             
1 54677U 22166AM  22353.77936122  .00002147  00000+0  21185-3 0  9991
2 54677  86.5167 153.5535 0009231 192.5323 167.5676 14.91453328  1910
ONEWEB-0659             
1 54678U 22166AN  22353.77881059  .00002841  00000+0  28066-3 0  9996
2 54678  86.5163 153.5525 0009601 192.1562 167.9436 14.91536025  1912
ONEWEB-0685             
1 54679U 22166AP  22353.78363110  .00002106  00000+0  21102-3 0  9999
2 54679  86.5190 153.5608 0007019 202.9437 157.1478 14.90861291  1919
ONEWEB-0712             
1 54680U 22166AQ  22353.77503794  .00002804  00000+0  27331-3 0  9999
2 54680  86.5176 153.5529 0011711 198.5398 161.5405 14.92057942  1918
ONEWEB-0714             
1 54681U 22166AR  22353.77351898  .00001613  00000+0  15508-3 0  9996
2 54681  86.5179 153.5521 0012131 202.1761 157.8944 14.92272725  1911
2022-167A               
1 54682U 22167A   22354.02025748  .00010630  00000+0  67853-3 0  9998
2 54682  97.5353 128.8241 0013484 226.4149 266.8828 15.08782570  1625
2022-167B               
1 54683U 22167B   22354.03176473  .00032477  00000+0  36773-3 0  9992
2 54683  97.5862 129.4641 0203176 287.0640  70.8448 15.41138674  1639
CAS-5A (FO-118)         
1 54684U 22167C   22354.02053498  .00008329  00000+0  53141-3 0  9990
2 54684  97.5372 128.8283 0013904 228.3591 270.5264 15.08864291  1619
2022-167D               
1 54685U 22167D   22354.01567229  .00005839  00000+0  36788-3 0  9993
2 54685  97.5432 128.8422 0012711 242.2963 254.5625 15.09469522  1617
2022-167E               
1 54686U 22167E   22354.01566684  .00005839  00000+0  36797-3 0  9998
2 54686  97.5390 128.8361 0012524 241.7321 254.9795 15.09466370  1617
2022-167F               
1 54687U 22167F   22354.01530198  .00007586  00000+0  47571-3 0  9993
2 54687  97.5372 128.8349 0013222 241.9884 254.8381 15.09538841  1619
2022-167G               
1 54688U 22167G   22354.01496538  .00010621  00000+0  66218-3 0  9996
2 54688  97.5347 128.8320 0013512 242.7181 255.1260 15.09645387  1616
2022-167H               
1 54689U 22167H   22354.01477556  .00005904  00000+0  37059-3 0  9995
2 54689  97.5452 128.8451 0013632 242.7718 253.9416 15.09591881  1616
2022-167J               
1 54690U 22167J   22354.01371052  .00005949  00000+0  37184-3 0  9999
2 54690  97.5332 128.8312 0013984 245.4150 251.2544 15.09741592  1610
2022-167K               
1 54691U 22167K   22354.01438211  .00006340  00000+0  39672-3 0  9991
2 54691  97.5389 128.8399 0014116 245.1042 252.3695 15.09673997  1615
2022-167L               
1 54692U 22167L   22354.01371020  .00006004  00000+0  37509-3 0  9990
2 54692  97.5436 128.8445 0014613 244.3592 252.6041 15.09749268  1617
2022-167M               
1 54693U 22167M   22354.02071331  .00011633  00000+0  74147-3 0  9997
2 54693  97.5409 128.8307 0014110 226.3347 269.8481 15.08804187  1580
2022-167N               
1 54694U 22167N   22354.01294644  .00006063  00000+0  37755-3 0  9996
2 54694  97.5347 128.8344 0014897 245.5494 251.4028 15.09857332  1610
2022-167P               
1 54695U 22167P   22354.01294933  .00006026  00000+0  37525-3 0  9992
2 54695  97.5399 128.8401 0015190 245.4155 251.6470 15.09859242  1617
FALCON 9 R/B            
1 54698U 22168C   22345.32368031  .00002049 -64822-5  00000+0 0  9995
2 54698  29.0000  41.2312 0098300  59.8200  27.0300 16.15592824    07
2022-169A               
1 54699U 22169A   22353.84203539  .00000126  00000+0  10276-3 0  9999
2 54699  59.9951 132.3681 0006659 253.6501 259.7896 14.29221598  1061
2022-169B               
1 54700U 22169B   22353.88461394  .00000431  00000+0  22486-3 0  9996
2 54700  59.9943 132.2459 0007100 235.4231 124.6139 14.28667038  1070
2022-169C               
1 54701U 22169C   22354.12213012  .00000225  00000+0  94501-4 0  9996
2 54701  59.9558 130.5459 0094296  46.7971 314.0899 14.49495112  1129
2022-169D               
1 54702U 22169D   22354.16251505  .00001035  00000+0  46003-3 0  9993
2 54702  59.9970 131.3157 0006314 246.1371 113.8992 14.29136999  1128
SZ-14 MODULE            
1 54704U 22060G   22353.90617718  .00025520  00000+0  30181-3 0  9993
2 54704  41.4847 168.1877 0008117 176.4945 183.5952 15.60655165  2163
GALAXY 35 (G-35)        
1 54741U 22170A   22350.18729448 -.00000213  00000+0  00000+0 0  9993
2 54741   3.2871 218.7269 5571717 178.9031 316.2064  1.94785585    49
GALAXY 36 (G-36)        
1 54742U 22170B   22350.43859110 -.00000334  00000+0  00000+0 0  9996
2 54742   3.4336 218.5937 5690547 178.9969 147.4018  1.97366996    59
METEOSAT-12             
1 54743U 22170C   22353.31524981 -.00000002  00000+0  00000+0 0  9994
2 54743   5.5504 217.8990 7131836 181.4542 110.3708  2.25104636   115
ARIANE 5 DEB [SYLDA]    
1 54744U 22170D   22351.58393401  .00100173  00000+0  20354-1 0  9998
2 54744   6.0190 217.5841 7282940 180.9906 173.5217  2.28665153    87
ARIANE 5 R/B            
1 54745U 22170E   22350.70750442  .00034354  00000+0  36366-2 0  9992
2 54745   5.8807 219.6241 7285962 178.2913 187.0722  2.29667630    64
2022-171A               
1 54746U 22171A   22353.93860485 -.00000037  00000+0  00000+0 0  9996
2 54746  35.0039 302.7241 0005142 313.1875 110.3882 15.23028488   797
2022-171B               
1 54747U 22171B   22353.93761529 -.00000037  00000+0  00000+0 0  9996
2 54747  34.9957 302.6932 0009954 312.5466 110.7705 15.23456388   764
2022-171C               
1 54748U 22171C   22353.93697517 -.00000037  00000+0  00000+0 0  9992
2 54748  34.9987 302.7051 0007760 307.8989 115.2065 15.23570795   769
2022-171D               
1 54749U 22171D   22353.93646483 -.00000038  00000+0  00000+0 0  9990
2 54749  34.9958 302.6863 0009923 319.9843 103.0184 15.23802341   766
2022-171E               
1 54750U 22171E   22353.93857661 -.00000037  00000+0  00000+0 0  9993
2 54750  34.9853 302.6734 0010004 335.2360 102.3040 15.23659867   751
2022-167Q               
1 54751U 22167Q   22353.95051339  .00007541  00000+0  47163-3 0  9990
2 54751  97.5362 128.7710 0013315 244.1167 264.5563 15.09634904  1261
SHIYAN 21               
1 54752U 22172A   22353.86051318  .00007787  00000+0  28309-3 0  9997
2 54752  35.9984 132.3483 0014153 332.4791 160.1188 15.27607042   559
SWOT                    
1 54754U 22173A   22353.94541832  .00137865  00000+0  76186-1 0  9999
2 54754  77.5864 321.3499 0005829  35.2986 349.0627 14.10385887   480
2022-174A               
1 54755U 22174A   22353.77623232  .00000047  00000+0  00000+0 0  9998
2 54755   9.6164 256.5598 1871721 188.6357 167.6491  7.26208101   213
2022-174B               
1 54756U 22174B   22353.91334351  .00000047  00000+0  00000+0 0  9996
2 54756   9.6188 256.3602 1869832 189.1009 166.9899  7.26305058   217
2022-174C               
1 54757U 22174C   22353.36484503  .00000047  00000+0  00000+0 0  9991
2 54757   9.6209 257.1735 1868337 187.4265 169.3825  7.25878007   160
